ONEWEB-0597             
1 54663U 22166X   25134.51784244 -.00000029  00000+0 -10147-3 0  9999
2 54663  87.9247 323.4973 0001840  82.6525 277.4818 13.21823640118877
ONEWEB-0600             
1 54664U 22166Y   25134.57619766  .00000012  00000+0 -23881-5 0  9994
2 54664  87.9231 323.4950 0001730  84.2154 275.9177 13.21825926118858
ONEWEB-0601             
1 54665U 22166Z   25134.56829152 -.00000587  00000+0 -14536-2 0  9998
2 54665  87.9249 323.4976 0002182  76.1917 283.9459 13.21828965119045
ONEWEB-0602             
1 54666U 22166AA  25134.60931083  .00000061  00000+0  11503-3 0  9998
2 54666  87.9250 323.4902 0001752  80.6919 279.4413 13.21827002118894
ONEWEB-0603             
1 54667U 22166AB  25134.53833020  .00000058  00000+0  10786-3 0  9991
2 54667  87.9223 323.4581 0001891  80.1111 280.0236 13.21826951118816
ONEWEB-0604             
1 54668U 22166AC  25134.52571347  .00000020  00000+0  15802-4 0  9996
2 54668  87.9244 323.4699 0001729  81.3460 278.7870 13.21828267118775
ONEWEB-0605             
1 54669U 22166AD  25134.59510398  .00000012  00000+0 -27156-5 0  9991
2 54669  87.9243 323.4869 0002459  79.6445 280.4966 13.21828164119322
ONEWEB-0606             
1 54670U 22166AE  25134.91996654  .00000028  00000+0  36945-4 0  9993
2 54670  87.9249 323.4309 0001775  95.9167 264.2169 13.21828896118956
